start=new Date('2022-11-27T00:00:00.000Z').valueOf();
sats=[{"SEMIMAJOR_AXIS":"6917.862","OBJECT_TYPE":"PAYLOAD","DECAY_DATE":null,"MEAN_MOTION":"15.08845887","TIME_SYSTEM":"UTC","INCLINATION":"53.2165","CENTER_NAME":"EARTH","OBJECT_ID":"2022-045P","RA_OF_ASC_NODE":"180.7196","RCS_SIZE":"LARGE","BSTAR":"0.00007163100000","EPHEMERIS_TYPE":"0","EPOCH":"2022-11-26T21:29:27.135744","TLE_LINE1":"1 52344U 22045P   22330.89545296  .00000852  00000-0  71631-4 0  9996","MEAN_MOTION_DOT":"0.00000852","ARG_OF_PERICENTER":"40.4022","OBJECT_NAME":"STARLINK-3851","REV_AT_EPOCH":"3480","TLE_LINE2":"2 52344  53.2165 180.7196 0002636  40.4022 319.7166 15.08845887 34805","ECCENTRICITY":"0.00026360","ELEMENT_SET_NO":"999","PERIAPSIS":"537.904","MEAN_MOTION_DDOT":"0.0000000000000","REF_FRAME":"TEME","FILE":"3671048","LAUNCH_DATE":"2022-04-29","CLASSIFICATION_TYPE":"U","COUNTRY_CODE":"US","GP_ID":"218894959","MEAN_ANOMALY":"319.7166","MEAN_ELEMENT_THEORY":"SGP4","APOAPSIS":"541.551","PERIOD":"95.437","NORAD_CAT_ID":"52344","SITE":"AFETR"},{"ECCENTRICITY":"0.00026570","ELEMENT_SET_NO":"999","TLE_LINE2":"2 52345  53.2179 182.1268 0002657  39.5269 320.5916 15.08845522 34744","PERIAPSIS":"537.890","MEAN_MOTION_DDOT":"0.0000000000000","REF_FRAME":"TEME","ARG_OF_PERICENTER":"39.5269","MEAN_MOTION_DOT":"0.00002081","REV_AT_EPOCH":"3474","OBJECT_NAME":"STARLINK-3852","TLE_LINE1":"1 52345U 22045Q   22330.58169449  .00002081  00000-0  14880-3 0  9993","EPOCH":"2022-11-26T13:57:38.403936","SITE":"AFETR","NORAD_CAT_ID":"52345","MEAN_ANOMALY":"320.5916","MEAN_ELEMENT_THEORY":"SGP4","APOAPSIS":"541.567","PERIOD":"95.437","FILE":"3670770","LAUNCH_DATE":"2022-04-29","GP_ID":"218861691","COUNTRY_CODE":"US","CLASSIFICATION_TYPE":"U","DECAY_DATE":null,"TIME_SYSTEM":"UTC","MEAN_MOTION":"15.08845522","SEMIMAJOR_AXIS":"6917.864","OBJECT_TYPE":"PAYLOAD","EPHEMERIS_TYPE":"0","BSTAR":"0.00014880000000","RCS_SIZE":"LARGE","RA_OF_ASC_NODE":"182.1268","CENTER_NAME":"EARTH","OBJECT_ID":"2022-045Q","INCLINATION":"53.2179"},{"RCS_SIZE":"LARGE","RA_OF_ASC_NODE":"180.7227","EPHEMERIS_TYPE":"0","BSTAR":"0.00017744000000","INCLINATION":"53.2146","CENTER_NAME":"EARTH","OBJECT_ID":"2022-045R","SEMIMAJOR_AXIS":"6917.845","OBJECT_TYPE":"PAYLOAD","DECAY_DATE":null,"TIME_SYSTEM":"UTC","MEAN_MOTION":"15.08851674","SITE":"AFETR","NORAD_CAT_ID":"52346","LAUNCH_DATE":"2022-04-29","FILE":"3671048","GP_ID":"218893460","COUNTRY_CODE":"US","CLASSIFICATION_TYPE":"U","MEAN_ANOMALY":"319.9134","APOAPSIS":"541.717","PERIOD":"95.437","MEAN_ELEMENT_THEORY":"SGP4","ARG_OF_PERICENTER":"40.2072","MEAN_MOTION_DOT":"0.00002538","REV_AT_EPOCH":"3480","OBJECT_NAME":"STARLINK-3812","ELEMENT_SET_NO":"999","ECCENTRICITY":"0.00029010","TLE_LINE2":"2 52346  53.2146 180.7227 0002901  40.2072 319.9134 15.08851674 34807","PERIAPSIS":"537.703","REF_FRAME":"TEME","MEAN_MOTION_DDOT":"0.0000000000000","EPOCH":"2022-11-26T21:28:04.541664","TLE_LINE1":"1 52346U 22045R   22330.89449701  .00002538  00000-0  17744-3 0  9999"},{"TIME_SYSTEM":"UTC","MEAN_MOTION":"15.08849190","DECAY_DATE":null,"OBJECT_TYPE":"PAYLOAD","SEMIMAJOR_AXIS":"6917.852","EPHEMERIS_TYPE":"0","BSTAR":"0.00013014000000","RCS_SIZE":"LARGE","RA_OF_ASC_NODE":"181.5681","OBJECT_ID":"2022-045S","CENTER_NAME":"EARTH","INCLINATION":"53.2177","MEAN_MOTION_DDOT":"0.0000000000000","PERIAPSIS":"537.979","REF_FRAME":"TEME","ELEMENT_SET_NO":"999","ECCENTRICITY":"0.00025130","TLE_LINE2":"2 52347  53.2177 181.5681 0002513  37.8504 322.2665 15.08849190 34778","REV_AT_EPOCH":"3477","OBJECT_NAME":"STARLINK-3826","ARG_OF_PERICENTER":"37.8504","MEAN_MOTION_DOT":"0.00001784","TLE_LINE1":"1 52347U 22045S   22330.70681382  .00001784  00000-0  13014-3 0  9991","EPOCH":"2022-11-26T16:57:48.714048","SITE":"AFETR","NORAD_CAT_ID":"52347","PERIOD":"95.437","APOAPSIS":"541.456","MEAN_ELEMENT_THEORY":"SGP4","MEAN_ANOMALY":"322.2665","GP_ID":"218894710","COUNTRY_CODE":"US","CLASSIFICATION_TYPE":"U","LAUNCH_DATE":"2022-04-29","FILE":"3671048"},{"MEAN_MOTION_DOT":"0.00003164","ARG_OF_PERICENTER":"39.5810","OBJECT_NAME":"STARLINK-3829","REV_AT_EPOCH":"3480","TLE_LINE2":"2 52348  53.2149 180.7688 0002821  39.5810 320.5388 15.08849635 34808","ELEMENT_SET_NO":"999","ECCENTRICITY":"0.00028210","REF_FRAME":"TEME","PERIAPSIS":"537.764","MEAN_MOTION_DDOT":"0.0000000000000","EPOCH":"2022-11-26T21:17:28.402656","TLE_LINE1":"1 52348U 22045T   22330.88713429  .00003164  00000-0  21674-3 0  9994","NORAD_CAT_ID":"52348","SITE":"AFETR","FILE":"3671048","LAUNCH_DATE":"2022-04-29","CLASSIFICATION_TYPE":"U","GP_ID":"218894460","COUNTRY_CODE":"US","MEAN_ANOMALY":"320.5388","APOAPSIS":"541.667","PERIOD":"95.437","MEAN_ELEMENT_THEORY":"SGP4","SEMIMAJOR_AXIS":"6917.851","OBJECT_TYPE":"PAYLOAD","DECAY_DATE":null,"MEAN_MOTION":"15.08849635","TIME_SYSTEM":"UTC","RA_OF_ASC_NODE":"180.7688","RCS_SIZE":"LARGE","BSTAR":"0.00021674000000","EPHEMERIS_TYPE":"0","INCLINATION":"53.2149","CENTER_NAME":"EARTH","OBJECT_ID":"2022-045T"},{"DECAY_DATE":null,"MEAN_MOTION":"15.08848640","TIME_SYSTEM":"UTC","SEMIMAJOR_AXIS":"6917.854","OBJECT_TYPE":"PAYLOAD","CENTER_NAME":"EARTH","OBJECT_ID":"2022-045U","INCLINATION":"53.2160","BSTAR":"0.00012371000000","EPHEMERIS_TYPE":"0","RA_OF_ASC_NODE":"181.5948","RCS_SIZE":"LARGE","TLE_LINE1":"1 52349U 22045U   22330.69946021  .00001681  00000-0  12371-3 0  9996","EPOCH":"2022-11-26T16:47:13.362144","TLE_LINE2":"2 52349  53.2160 181.5948 0003033  40.6041 319.5177 15.08848640 34770","ECCENTRICITY":"0.00030330","ELEMENT_SET_NO":"999","PERIAPSIS":"537.621","REF_FRAME":"TEME","MEAN_MOTION_DDOT":"0.0000000000000","MEAN_MOTION_DOT":"0.00001681","ARG_OF_PERICENTER":"40.6041","OBJECT_NAME":"STARLINK-3819","REV_AT_EPOCH":"3477","MEAN_ANOMALY":"319.5177","PERIOD":"95.437","APOAPSIS":"541.817","MEAN_ELEMENT_THEORY":"SGP4","FILE":"3671048","LAUNCH_DATE":"2022-04-29","CLASSIFICATION_TYPE":"U","GP_ID":"218893210","COUNTRY_CODE":"US","NORAD_CAT_ID":"52349","SITE":"AFETR"},{"OBJECT_ID":"2022-045V","CENTER_NAME":"EARTH","INCLINATION":"53.2146","EPHEMERIS_TYPE":"0","BSTAR":"0.00003296600000","RCS_SIZE":"LARGE","RA_OF_ASC_NODE":"180.7791","TIME_SYSTEM":"UTC","MEAN_MOTION":"15.08844434","DECAY_DATE":null,"OBJECT_TYPE":"PAYLOAD","SEMIMAJOR_AXIS":"6917.867","PERIOD":"95.437","APOAPSIS":"541.753","MEAN_ELEMENT_THEORY":"SGP4","MEAN_ANOMALY":"318.9640","COUNTRY_CODE":"US","GP_ID":"218893959","CLASSIFICATION_TYPE":"U","LAUNCH_DATE":"2022-04-29","FILE":"3671048","SITE":"AFETR","NORAD_CAT_ID":"52350","TLE_LINE1":"1 52350U 22045V   22330.88345088  .00000236  00000-0  32966-4 0  9993","EPOCH":"2022-11-26T21:12:10.156032","REF_FRAME":"TEME","PERIAPSIS":"537.711","MEAN_MOTION_DDOT":"0.0000000000000","ECCENTRICITY":"0.00029210","ELEMENT_SET_NO":"999","TLE_LINE2":"2 52350  53.2146 180.7791 0002921  41.1572 318.9640 15.08844434 34802","REV_AT_EPOCH":"3480","OBJECT_NAME":"STARLINK-3754","ARG_OF_PERICENTER":"41.1572","MEAN_MOTION_DOT":"0.00000236"},{"OBJECT_NAME":"STARLINK-3816","REV_AT_EPOCH":"3504","MEAN_MOTION_DOT":"0.00055622","ARG_OF_PERICENTER":"183.3529","PERIAPSIS":"338.411","MEAN_MOTION_DDOT":"0.0000000000000","REF_FRAME":"TEME","TLE_LINE2":"2 52351  53.2149 162.6270 0001749 183.3529 176.7481 15.76775353 35043","ELEMENT_SET_NO":"999","ECCENTRICITY":"0.00017490","EPOCH":"2022-11-26T17:04:48.193824","TLE_LINE1":"1 52351U 22045W   22330.71166891  .00055622  00000-0  34093-3 0  9990","NORAD_CAT_ID":"52351","SITE":"AFETR","CLASSIFICATION_TYPE":"U","COUNTRY_CODE":"US","GP_ID":"218894211","FILE":"3671048","LAUNCH_DATE":"2022-04-29","MEAN_ELEMENT_THEORY":"SGP4","APOAPSIS":"340.761","PERIOD":"91.326","MEAN_ANOMALY":"176.7481","OBJECT_TYPE":"PAYLOAD","SEMIMAJOR_AXIS":"6717.721","MEAN_MOTION":"15.76775353","TIME_SYSTEM":"UTC","DECAY_DATE":null,"RA_OF_ASC_NODE":"162.6270","RCS_SIZE":"LARGE","BSTAR":"0.00034093000000","EPHEMERIS_TYPE":"0","INCLINATION":"53.2149","OBJECT_ID":"2022-045W","CENTER_NAME":"EARTH"},{"SEMIMAJOR_AXIS":"6917.887","OBJECT_TYPE":"PAYLOAD","DECAY_DATE":null,"TIME_SYSTEM":"UTC","MEAN_MOTION":"15.08837690","RCS_SIZE":"LARGE","RA_OF_ASC_NODE":"180.8295","EPHEMERIS_TYPE":"0","BSTAR":"0.00005473000000","INCLINATION":"53.2152","CENTER_NAME":"EARTH","OBJECT_ID":"2022-045X","ARG_OF_PERICENTER":"37.5006","MEAN_MOTION_DOT":"0.00000582","REV_AT_EPOCH":"3480","OBJECT_NAME":"STARLINK-3838","ECCENTRICITY":"0.00029790","ELEMENT_SET_NO":"999","TLE_LINE2":"2 52352  53.2152 180.8295 0002979  37.5006 322.6193 15.08837690 34806","PERIAPSIS":"537.692","REF_FRAME":"TEME","MEAN_MOTION_DDOT":"0.0000000000000","EPOCH":"2022-11-26T20:56:16.782144","TLE_LINE1":"1 52352U 22045X   22330.87241646  .00000582  00000-0  54730-4 0  9996","SITE":"AFETR","NORAD_CAT_ID":"52352","LAUNCH_DATE":"2022-04-29","FILE":"3671048","GP_ID":"218894960","COUNTRY_CODE":"US","CLASSIFICATION_TYPE":"U","MEAN_ANOMALY":"322.6193","MEAN_ELEMENT_THEORY":"SGP4","APOAPSIS":"541.813","PERIOD":"95.438"},{"RA_OF_ASC_NODE":"181.3909","RCS_SIZE":"LARGE","BSTAR":"0.00010662000000","EPHEMERIS_TYPE":"0","INCLINATION":"53.2155","OBJECT_ID":"2022-045Y","CENTER_NAME":"EARTH","OBJECT_TYPE":"PAYLOAD","SEMIMAJOR_AXIS":"6917.866","MEAN_MOTION":"15.08844779","TIME_SYSTEM":"UTC","DECAY_DATE":null,"NORAD_CAT_ID":"52353","SITE":"AFETR","CLASSIFICATION_TYPE":"U","GP_ID":"218893709","COUNTRY_CODE":"US","FILE":"3671048","LAUNCH_DATE":"2022-04-29","APOAPSIS":"541.750","PERIOD":"95.437","MEAN_ELEMENT_THEORY":"SGP4","MEAN_ANOMALY":"319.8462","OBJECT_NAME":"STARLINK-3807","REV_AT_EPOCH":"3478","MEAN_MOTION_DOT":"0.00001409","ARG_OF_PERICENTER":"40.2746","PERIAPSIS":"537.711","MEAN_MOTION_DDOT":"0.0000000000000","REF_FRAME":"TEME","TLE_LINE2":"2 52353  53.2155 181.3909 0002919  40.2746 319.8462 15.08844779 34784","ELEMENT_SET_NO":"999","ECCENTRICITY":"0.00029190","EPOCH":"2022-11-26T17:56:06.284544","TLE_LINE1":"1 52353U 22045Y   22330.74729496  .00001409  00000-0  10662-3 0  9991"}];
